{
  "links" : {
    "next" : "https://api.nasa.gov/neo/rest/v1/feed?start_date=2014-01-16&end_date=2014-01-16&detailed=true&api_key=t0TVs3DtDT2H8Oy2Zy8m2eVrNsAVKAexjcZXUckd",
    "prev" : "https://api.nasa.gov/neo/rest/v1/feed?start_date=2014-01-14&end_date=2014-01-14&detailed=true&api_key=t0TVs3DtDT2H8Oy2Zy8m2eVrNsAVKAexjcZXUckd",
    "self" : "https://api.nasa.gov/neo/rest/v1/feed?start_date=2014-01-15&end_date=2014-01-15&detailed=true&api_key=t0TVs3DtDT2H8Oy2Zy8m2eVrNsAVKAexjcZXUckd"
  },
  "element_count" : 12,
  "near_earth_objects" : {
    "2014-01-15" : [ {
      "links" : {
        "self" : "https://api.nasa.gov/neo/rest/v1/neo/3514799?api_key=t0TVs3DtDT2H8Oy2Zy8m2eVrNsAVKAexjcZXUckd"
      },
      "neo_reference_id" : "3514799",
      "name" : "(2010 FH81)",
      "nasa_jpl_url" : "http://ssd.jpl.nasa.gov/sbdb.cgi?sstr=3514799",
      "absolute_magnitude_h" : 21.6,
      "estimated_diameter" : {
        "kilometers" : {
          "estimated_diameter_min" : 0.1272198785,
          "estimated_diameter_max" : 0.2844722965
        },
        "meters" : {
          "estimated_diameter_min" : 127.2198785394,
          "estimated_diameter_max" : 284.4722965033
        },
        "miles" : {
          "estimated_diameter_min" : 0.0790507431,
          "estimated_diameter_max" : 0.1767628354
        },
        "feet" : {
          "estimated_diameter_min" : 417.3880663071,
          "estimated_diameter_max" : 933.3080892598
        }
      },
      "is_potentially_hazardous_asteroid" : true,
      "close_approach_data" : [ {
        "close_approach_date" : "2014-01-15",
        "epoch_date_close_approach" : 1389772800000,
        "relative_velocity" : {
          "kilometers_per_second" : "9.8085544962",
          "kilometers_per_hour" : "35310.7961864108",
          "miles_per_hour" : "21940.7555526062"
        },
        "miss_distance" : {
          "astronomical" : "0.4067989276",
          "lunar" : "158.2447814941",
          "kilometers" : "60856256",
          "miles" : "37814324"
        },
        "orbiting_body" : "Earth"
      } ],
      "orbital_data" : {
        "orbit_id" : "25",
        "orbit_determination_date" : "2017-04-06 08:57:58",
        "orbit_uncertainty" : "1",
        "minimum_orbit_intersection" : ".034798",
        "jupiter_tisserand_invariant" : "5.154",
        "epoch_osculation" : "2458000.5",
        "eccentricity" : ".2104479432284866",
        "semi_major_axis" : "1.225614736618327",
        "inclination" : "16.79338165999116",
        "ascending_node_longitude" : "84.62930679460825",
        "orbital_period" : "495.597820944911",
        "perihelion_distance" : ".9676866361064762",
        "perihelion_argument" : "158.2635960713293",
        "aphelion_distance" : "1.483542837130177",
        "perihelion_time" : "2457814.455148689195",
        "mean_anomaly" : "135.1421326756292",
        "mean_motion" : ".7263954456329549",
        "equinox" : "J2000"
      }
    }, {
      "links" : {
        "self" : "https://api.nasa.gov/neo/rest/v1/neo/3550301?api_key=t0TVs3DtDT2H8Oy2Zy8m2eVrNsAVKAexjcZXUckd"
      },
      "neo_reference_id" : "3550301",
      "name" : "(2010 VE1)",
      "nasa_jpl_url" : "http://ssd.jpl.nasa.gov/sbdb.cgi?sstr=3550301",
      "absolute_magnitude_h" : 19.7,
      "estimated_diameter" : {
        "kilometers" : {
          "estimated_diameter_min" : 0.3051792326,
          "estimated_diameter_max" : 0.6824015094
        },
        "meters" : {
          "estimated_diameter_min" : 305.1792325939,
          "estimated_diameter_max" : 682.4015094011
        },
        "miles" : {
          "estimated_diameter_min" : 0.1896295249,
          "estimated_diameter_max" : 0.4240245083
        },
        "feet" : {
          "estimated_diameter_min" : 1001.2442334633,
          "estimated_diameter_max" : 2238.8501681036
        }
      },
      "is_potentially_hazardous_asteroid" : false,
      "close_approach_data" : [ {
        "close_approach_date" : "2014-01-15",
        "epoch_date_close_approach" : 1389772800000,
        "relative_velocity" : {
          "kilometers_per_second" : "2.8123389285",
          "kilometers_per_hour" : "10124.420142501",
          "miles_per_hour" : "6290.9209491001"
        },
        "miss_distance" : {
          "astronomical" : "0.4738002953",
          "lunar" : "184.3083190918",
          "kilometers" : "70879520",
          "miles" : "44042488"
        },
        "orbiting_body" : "Earth"
      } ],
      "orbital_data" : {
        "orbit_id" : "29",
        "orbit_determination_date" : "2017-05-03 06:18:20",
        "orbit_uncertainty" : "0",
        "minimum_orbit_intersection" : ".315901",
        "jupiter_tisserand_invariant" : "3.753",
        "epoch_osculation" : "2457800.5",
        "eccentricity" : ".361698734809224",
        "semi_major_axis" : "1.996144856550488",
        "inclination" : "7.150615970654473",
        "ascending_node_longitude" : "55.0234347862559",
        "orbital_period" : "1030.116889831156",
        "perihelion_distance" : "1.274141787440237",
        "perihelion_argument" : "98.4794271838489",
        "aphelion_distance" : "2.718147925660739",
        "perihelion_time" : "2457767.396953231451",
        "mean_anomaly" : "11.56868405354562",
        "mean_motion" : ".3494749028520507",
        "equinox" : "J2000"
      }
    }, {
      "links" : {
        "self" : "https://api.nasa.gov/neo/rest/v1/neo/3602572?api_key=t0TVs3DtDT2H8Oy2Zy8m2eVrNsAVKAexjcZXUckd"
      },
      "neo_reference_id" : "3602572",
      "name" : "(2012 GV11)",
      "nasa_jpl_url" : "http://ssd.jpl.nasa.gov/sbdb.cgi?sstr=3602572",
      "absolute_magnitude_h" : 22.3,
      "estimated_diameter" : {
        "kilometers" : {
          "estimated_diameter_min" : 0.0921626549,
          "estimated_diameter_max" : 0.2060819612
        },
        "meters" : {
          "estimated_diameter_min" : 92.1626548503,
          "estimated_diameter_max" : 206.0819612321
        },
        "miles" : {
          "estimated_diameter_min" : 0.057267201,
          "estimated_diameter_max" : 0.1280533543
        },
        "feet" : {
          "estimated_diameter_min" : 302.370924539,
          "estimated_diameter_max" : 676.1219416887
        }
      },
      "is_potentially_hazardous_asteroid" : false,
      "close_approach_data" : [ {
        "close_approach_date" : "2014-01-15",
        "epoch_date_close_approach" : 1389772800000,
        "relative_velocity" : {
          "kilometers_per_second" : "8.7075659844",
          "kilometers_per_hour" : "31347.2375436932",
          "miles_per_hour" : "19477.9543504132"
        },
        "miss_distance" : {
          "astronomical" : "0.1036984486",
          "lunar" : "40.3386955261",
          "kilometers" : "15513067",
          "miles" : "9639373"
        },
        "orbiting_body" : "Earth"
      } ],
      "orbital_data" : {
        "orbit_id" : "26",
        "orbit_determination_date" : "2017-04-06 08:50:08",
        "orbit_uncertainty" : "3",
        "minimum_orbit_intersection" : ".0752498",
        "jupiter_tisserand_invariant" : "5.850",
        "epoch_osculation" : "2458000.5",
        "eccentricity" : ".2157184322093987",
        "semi_major_axis" : "1.045043524692945",
        "inclination" : "5.403695674733137",
        "ascending_node_longitude" : "164.6694220022337",
        "orbital_period" : "390.2114374413899",
        "perihelion_distance" : ".8196083739555992",
        "perihelion_argument" : "217.5177071850167",
        "aphelion_distance" : "1.270478675430291",
        "perihelion_time" : "2458164.262098979104",
        "mean_anomaly" : "208.9168948531081",
        "mean_motion" : ".9225767505958159",
        "equinox" : "J2000"
      }
    } ]
  }
}